CCSDS_OMM_VERS = 2.0
CREATION_DATE  = 
ORIGINATOR     = 

OBJECT_NAME    = ATLAS CENTAUR R/B
OBJECT_ID      = 1972-065B
CENTER_NAME    = EARTH
REF_FRAME      = TEME
TIME_SYSTEM    = UTC
MEAN_ELEMENT_THEORY = SGP/SGP4

EPOCH          = 2026-03-10T00:45:06.892128
MEAN_MOTION    = 14.77687829
ECCENTRICITY   = .0033483
INCLINATION    = 35.0017
RA_OF_ASC_NODE = 303.7524
ARG_OF_PERICENTER = 11.7419
MEAN_ANOMALY   = 348.4057

EPHEMERIS_TYPE = 0
CLASSIFICATION_TYPE = U
NORAD_CAT_ID   = 6155
ELEMENT_SET_NO = 999
REV_AT_EPOCH   = 84131
BSTAR          = .21421E-3
MEAN_MOTION_DOT = .155E-4
MEAN_MOTION_DDOT = 0

CCSDS_OMM_VERS = 2.0
CREATION_DATE  = 
ORIGINATOR     = 

OBJECT_NAME    = SL-8 R/B
OBJECT_ID      = 1975-112B
CENTER_NAME    = EARTH
REF_FRAME      = TEME
TIME_SYSTEM    = UTC
MEAN_ELEMENT_THEORY = SGP/SGP4

EPOCH          = 2026-03-10T03:05:55.781376
MEAN_MOTION    = 14.38204023
ECCENTRICITY   = .0014421
INCLINATION    = 74.0629
RA_OF_ASC_NODE = 18.1034
ARG_OF_PERICENTER = 111.2144
MEAN_ANOMALY   = 249.0552

EPHEMERIS_TYPE = 0
CLASSIFICATION_TYPE = U
NORAD_CAT_ID   = 8459
ELEMENT_SET_NO = 999
REV_AT_EPOCH   = 63193
BSTAR          = .11445E-3
MEAN_MOTION_DOT = .322E-5
MEAN_MOTION_DDOT = 0

CCSDS_OMM_VERS = 2.0
CREATION_DATE  = 
ORIGINATOR     = 

OBJECT_NAME    = SL-3 R/B
OBJECT_ID      = 1977-057B
CENTER_NAME    = EARTH
REF_FRAME      = TEME
TIME_SYSTEM    = UTC
MEAN_ELEMENT_THEORY = SGP/SGP4

EPOCH          = 2026-03-10T04:07:59.160000
MEAN_MOTION    = 15.45510653
ECCENTRICITY   = .0006162
INCLINATION    = 97.5778
RA_OF_ASC_NODE = 241.1141
ARG_OF_PERICENTER = 283.2413
MEAN_ANOMALY   = 76.8148

EPHEMERIS_TYPE = 0
CLASSIFICATION_TYPE = U
NORAD_CAT_ID   = 10114
ELEMENT_SET_NO = 999
REV_AT_EPOCH   = 66840
BSTAR          = .34315E-3
MEAN_MOTION_DOT = .16391E-3
MEAN_MOTION_DDOT = 0

CCSDS_OMM_VERS = 2.0
CREATION_DATE  = 
ORIGINATOR     = 

OBJECT_NAME    = SEASAT 1
OBJECT_ID      = 1978-064A
CENTER_NAME    = EARTH
REF_FRAME      = TEME
TIME_SYSTEM    = UTC
MEAN_ELEMENT_THEORY = SGP/SGP4

EPOCH          = 2026-03-10T02:50:52.767456
MEAN_MOTION    = 14.46160702
ECCENTRICITY   = .0002328
INCLINATION    = 108.0107
RA_OF_ASC_NODE = 126.4000
ARG_OF_PERICENTER = 285.7450
MEAN_ANOMALY   = 74.3439

EPHEMERIS_TYPE = 0
CLASSIFICATION_TYPE = U
NORAD_CAT_ID   = 10967
ELEMENT_SET_NO = 999
REV_AT_EPOCH   = 50657
BSTAR          = .12632E-3
MEAN_MOTION_DOT = .314E-5
MEAN_MOTION_DDOT = 0

CCSDS_OMM_VERS = 2.0
CREATION_DATE  = 
ORIGINATOR     = 

OBJECT_NAME    = SL-14 R/B
OBJECT_ID      = 1979-011B
CENTER_NAME    = EARTH
REF_FRAME      = TEME
TIME_SYSTEM    = UTC
MEAN_ELEMENT_THEORY = SGP/SGP4

EPOCH          = 2026-03-10T02:48:32.774400
MEAN_MOTION    = 14.91908671
ECCENTRICITY   = .0017387
INCLINATION    = 82.5208
RA_OF_ASC_NODE = 96.1653
ARG_OF_PERICENTER = 59.2501
MEAN_ANOMALY   = 301.0428

EPHEMERIS_TYPE = 0
CLASSIFICATION_TYPE = U
NORAD_CAT_ID   = 11267
ELEMENT_SET_NO = 999
REV_AT_EPOCH   = 52884
BSTAR          = .66182E-4
MEAN_MOTION_DOT = .697E-5
MEAN_MOTION_DDOT = 0

CCSDS_OMM_VERS = 2.0
CREATION_DATE  = 
ORIGINATOR     = 

OBJECT_NAME    = SL-8 R/B
OBJECT_ID      = 1979-089B
CENTER_NAME    = EARTH
REF_FRAME      = TEME
TIME_SYSTEM    = UTC
MEAN_ELEMENT_THEORY = SGP/SGP4

EPOCH          = 2026-03-10T03:52:47.692704
MEAN_MOTION    = 14.42351210
ECCENTRICITY   = .0017157
INCLINATION    = 74.0667
RA_OF_ASC_NODE = 90.1699
ARG_OF_PERICENTER = 262.7897
MEAN_ANOMALY   = 97.1309

EPHEMERIS_TYPE = 0
CLASSIFICATION_TYPE = U
NORAD_CAT_ID   = 11574
ELEMENT_SET_NO = 999
REV_AT_EPOCH   = 43617
BSTAR          = .11231E-3
MEAN_MOTION_DOT = .345E-5
MEAN_MOTION_DDOT = 0

CCSDS_OMM_VERS = 2.0
CREATION_DATE  = 
ORIGINATOR     = 

OBJECT_NAME    = SL-14 R/B
OBJECT_ID      = 1980-005B
CENTER_NAME    = EARTH
REF_FRAME      = TEME
TIME_SYSTEM    = UTC
MEAN_ELEMENT_THEORY = SGP/SGP4

EPOCH          = 2026-03-10T03:07:42.221856
MEAN_MOTION    = 14.90930937
ECCENTRICITY   = .0016219
INCLINATION    = 82.5144
RA_OF_ASC_NODE = 306.8184
ARG_OF_PERICENTER = 156.8608
MEAN_ANOMALY   = 203.3345

EPHEMERIS_TYPE = 0
CLASSIFICATION_TYPE = U
NORAD_CAT_ID   = 11672
ELEMENT_SET_NO = 999
REV_AT_EPOCH   = 47655
BSTAR          = .64127E-4
MEAN_MOTION_DOT = .659E-5
MEAN_MOTION_DDOT = 0

CCSDS_OMM_VERS = 2.0
CREATION_DATE  = 
ORIGINATOR     = 

OBJECT_NAME    = SL-8 R/B
OBJECT_ID      = 1981-003B
CENTER_NAME    = EARTH
REF_FRAME      = TEME
TIME_SYSTEM    = UTC
MEAN_ELEMENT_THEORY = SGP/SGP4

EPOCH          = 2026-03-10T01:36:27.345888
MEAN_MOTION    = 15.10990524
ECCENTRICITY   = .0262078
INCLINATION    = 82.9385
RA_OF_ASC_NODE = 289.6746
ARG_OF_PERICENTER = 177.3345
MEAN_ANOMALY   = 182.9362

EPHEMERIS_TYPE = 0
CLASSIFICATION_TYPE = U
NORAD_CAT_ID   = 12139
ELEMENT_SET_NO = 999
REV_AT_EPOCH   = 31473
BSTAR          = .55974E-3
MEAN_MOTION_DOT = .21828E-3
MEAN_MOTION_DDOT = 0

CCSDS_OMM_VERS = 2.0
CREATION_DATE  = 
ORIGINATOR     = 

OBJECT_NAME    = SL-3 R/B
OBJECT_ID      = 1981-046B
CENTER_NAME    = EARTH
REF_FRAME      = TEME
TIME_SYSTEM    = UTC
MEAN_ELEMENT_THEORY = SGP/SGP4

EPOCH          = 2026-03-10T04:10:17.285088
MEAN_MOTION    = 15.42012061
ECCENTRICITY   = .0019514
INCLINATION    = 81.2298
RA_OF_ASC_NODE = 289.1627
ARG_OF_PERICENTER = 20.6432
MEAN_ANOMALY   = 339.5594

EPHEMERIS_TYPE = 0
CLASSIFICATION_TYPE = U
NORAD_CAT_ID   = 12465
ELEMENT_SET_NO = 999
REV_AT_EPOCH   = 43850
BSTAR          = .34673E-3
MEAN_MOTION_DOT = .14923E-3
MEAN_MOTION_DDOT = 0

CCSDS_OMM_VERS = 2.0
CREATION_DATE  = 
ORIGINATOR     = 

OBJECT_NAME    = SL-3 R/B
OBJECT_ID      = 1981-103B
CENTER_NAME    = EARTH
REF_FRAME      = TEME
TIME_SYSTEM    = UTC
MEAN_ELEMENT_THEORY = SGP/SGP4

EPOCH          = 2026-03-10T04:00:21.487968
MEAN_MOTION    = 15.21383954
ECCENTRICITY   = .001242
INCLINATION    = 81.1586
RA_OF_ASC_NODE = 212.8720
ARG_OF_PERICENTER = 285.3046
MEAN_ANOMALY   = 74.6812

EPHEMERIS_TYPE = 0
CLASSIFICATION_TYPE = U
NORAD_CAT_ID   = 12904
ELEMENT_SET_NO = 999
REV_AT_EPOCH   = 97330
BSTAR          = .30837E-3
MEAN_MOTION_DOT = .6952E-4
MEAN_MOTION_DDOT = 0

CCSDS_OMM_VERS = 2.0
CREATION_DATE  = 
ORIGINATOR     = 

OBJECT_NAME    = SL-3 R/B
OBJECT_ID      = 1982-013B
CENTER_NAME    = EARTH
REF_FRAME      = TEME
TIME_SYSTEM    = UTC
MEAN_ELEMENT_THEORY = SGP/SGP4

EPOCH          = 2026-03-10T04:11:41.499168
MEAN_MOTION    = 15.22025244
ECCENTRICITY   = .0022655
INCLINATION    = 81.1762
RA_OF_ASC_NODE = 160.2022
ARG_OF_PERICENTER = 175.9136
MEAN_ANOMALY   = 184.2286

EPHEMERIS_TYPE = 0
CLASSIFICATION_TYPE = U
NORAD_CAT_ID   = 13068
ELEMENT_SET_NO = 999
REV_AT_EPOCH   = 40442
BSTAR          = .2511E-3
MEAN_MOTION_DOT = .5802E-4
MEAN_MOTION_DDOT = 0

CCSDS_OMM_VERS = 2.0
CREATION_DATE  = 
ORIGINATOR     = 

OBJECT_NAME    = SL-3 R/B
OBJECT_ID      = 1982-039B
CENTER_NAME    = EARTH
REF_FRAME      = TEME
TIME_SYSTEM    = UTC
MEAN_ELEMENT_THEORY = SGP/SGP4

EPOCH          = 2026-03-10T04:29:08.788992
MEAN_MOTION    = 15.10085569
ECCENTRICITY   = .0029719
INCLINATION    = 81.1582
RA_OF_ASC_NODE = 215.3885
ARG_OF_PERICENTER = 322.8784
MEAN_ANOMALY   = 37.0385

EPHEMERIS_TYPE = 0
CLASSIFICATION_TYPE = U
NORAD_CAT_ID   = 13154
ELEMENT_SET_NO = 999
REV_AT_EPOCH   = 38171
BSTAR          = .21237E-3
MEAN_MOTION_DOT = .3516E-4
MEAN_MOTION_DDOT = 0

