ATLAS CENTAUR R/B       
1 06155U 72065B   26069.03132977  .00001550  00000+0  21421-3 0  9995
2 06155  35.0017 303.7524 0033483  11.7419 348.4057 14.77687829841310
SL-8 R/B                
1 08459U 75112B   26069.12911784  .00000322  00000+0  11445-3 0  9992
2 08459  74.0629  18.1034 0014421 111.2144 249.0552 14.38204023631935
SL-3 R/B                
1 10114U 77057B   26069.17221250  .00016391  00000+0  34315-3 0  9994
2 10114  97.5778 241.1141 0006162 283.2413  76.8148 15.45510653668407
SEASAT 1                
1 10967U 78064A   26069.11866629  .00000314  00000+0  12632-3 0  9994
2 10967 108.0107 126.4000 0002328 285.7450  74.3439 14.46160702506575
SL-14 R/B               
1 11267U 79011B   26069.11704600  .00000697  00000+0  66182-4 0  9995
2 11267  82.5208  96.1653 0017387  59.2501 301.0428 14.91908671528843
SL-8 R/B                
1 11574U 79089B   26069.16166311  .00000345  00000+0  11231-3 0  9991
2 11574  74.0667  90.1699 0017157 262.7897  97.1309 14.42351210436179
SL-14 R/B               
1 11672U 80005B   26069.13034979  .00000659  00000+0  64127-4 0  9992
2 11672  82.5144 306.8184 0016219 156.8608 203.3345 14.90930937476558
SL-8 R/B                
1 12139U 81003B   26069.06698317  .00021828  00000+0  55974-3 0  9994
2 12139  82.9385 289.6746 0262078 177.3345 182.9362 15.10990524314735
SL-3 R/B                
1 12465U 81046B   26069.17381117  .00014923  00000+0  34673-3 0  9993
2 12465  81.2298 289.1627 0019514  20.6432 339.5594 15.42012061438502
SL-3 R/B                
1 12904U 81103B   26069.16691537  .00006952  00000+0  30837-3 0  9995
2 12904  81.1586 212.8720 0012420 285.3046  74.6812 15.21383954973307
SL-3 R/B                
1 13068U 82013B   26069.17478587  .00005802  00000+0  25110-3 0  9998
2 13068  81.1762 160.2022 0022655 175.9136 184.2286 15.22025244404422
SL-3 R/B                
1 13154U 82039B   26069.18690728  .00003516  00000+0  21237-3 0  9992
2 13154  81.1582 215.3885 0029719 322.8784  37.0385 15.10085569381711
